{
  "type": "FeatureCollection",
  "features": [
    {
      "type": "Feature",
      "properties": {
        "norad_id": 28054,
        "name": "DMSP 5D-3 F16 (USA 172)",
        "group": "weather",
        "lat": -17.812557209930183,
        "lon": -171.25033005849878,
        "alt_km": 849.9139952075911,
        "timestamp": "2025-12-20T03:42:47.035173+00:00",
        "meta_object_name": "DMSP 5D-3 F16 (USA 172)",
        "meta_object_id": "2003-048A",
        "meta_epoch": "2025-12-19T18:48:25.803072",
        "meta_mean_motion": 14.14426605,
        "meta_eccentricity": 0.0006307,
        "meta_inclination": 99.0039,
        "meta_ra_of_asc_node": 11.2959,
        "meta_arg_of_pericenter": 298.4816,
        "meta_mean_anomaly": 171.0563,
        "meta_ephemeris_type": 0,
        "meta_classification_type": "U",
        "meta_norad_cat_id": 28054,
        "meta_element_set_no": 999,
        "meta_rev_at_epoch": 14412,
        "meta_bstar": 6.7968e-05,
        "meta_mean_motion_dot": 8.5e-07,
        "meta_mean_motion_ddot": 0,
        "tle_line1": "1 28054U 03048A   25353.78363198  .00000085  00000+0  67968-4 0  9999",
        "tle_line2": "2 28054  99.0039  11.2959 0006307 298.4816 171.0563 14.14426605144120"
      },
      "geometry": {
        "type": "Point",
        "coordinates": [
          -171.25033005849878,
          -17.812557209930183
        ]
      }
    },
    {
      "type": "Feature",
      "properties": {
        "norad_id": 28912,
        "name": "METEOSAT-9 (MSG-2)",
        "group": "weather",
        "lat": 6.522673242864737,
        "lon": -170.67686022860477,
        "alt_km": 36081.749883812125,
        "timestamp": "2025-12-20T03:42:47.035220+00:00",
        "meta_object_name": "METEOSAT-9 (MSG-2)",
        "meta_object_id": "2005-049B",
        "meta_epoch": "2025-12-18T20:21:29.033280",
        "meta_mean_motion": 1.00264866,
        "meta_eccentricity": 0.0082047,
        "meta_inclination": 8.9417,
        "meta_ra_of_asc_node": 55.9014,
        "meta_arg_of_pericenter": 282.314,
        "meta_mean_anomaly": 99.6592,
        "meta_ephemeris_type": 0,
        "meta_classification_type": "U",
        "meta_norad_cat_id": 28912,
        "meta_element_set_no": 999,
        "meta_rev_at_epoch": 519,
        "meta_bstar": 0,
        "meta_mean_motion_dot": 1.45e-06,
        "meta_mean_motion_ddot": 0,
        "tle_line1": "1 28912U 05049B   25352.84825270  .00000145  00000+0  00000+0 0  9991",
        "tle_line2": "2 28912   8.9417  55.9014 0082047 282.3140  99.6592  1.00264866  5196"
      },
      "geometry": {
        "type": "Point",
        "coordinates": [
          -170.67686022860477,
          6.522673242864737
        ]
      }
    },
    {
      "type": "Feature",
      "properties": {
        "norad_id": 29522,
        "name": "DMSP 5D-3 F17 (USA 191)",
        "group": "weather",
        "lat": 28.203497296307713,
        "lon": -175.87905295283193,
        "alt_km": 836.8737357096434,
        "timestamp": "2025-12-20T03:42:47.035238+00:00",
        "meta_object_name": "DMSP 5D-3 F17 (USA 191)",
        "meta_object_id": "2006-050A",
        "meta_epoch": "2025-12-19T18:30:49.564800",
        "meta_mean_motion": 14.1492252,
        "meta_eccentricity": 0.0009697,
        "meta_inclination": 98.739,
        "meta_ra_of_asc_node": 359.0141,
        "meta_arg_of_pericenter": 203.6273,
        "meta_mean_anomaly": 156.4456,
        "meta_ephemeris_type": 0,
        "meta_classification_type": "U",
        "meta_norad_cat_id": 29522,
        "meta_element_set_no": 999,
        "meta_rev_at_epoch": 98704,
        "meta_bstar": 8.7524e-05,
        "meta_mean_motion_dot": 1.26e-06,
        "meta_mean_motion_ddot": 0,
        "tle_line1": "1 29522U 06050A   25353.77140700  .00000126  00000+0  87524-4 0  9993",
        "tle_line2": "2 29522  98.7390 359.0141 0009697 203.6273 156.4456 14.14922520987044"
      },
      "geometry": {
        "type": "Point",
        "coordinates": [
          -175.87905295283193,
          28.203497296307713
        ]
      }
    },
    {
      "type": "Feature",
      "properties": {
        "norad_id": 32958,
        "name": "FENGYUN 3A",
        "group": "weather",
        "lat": -12.017096147865997,
        "lon": -64.6131526994451,
        "alt_km": 828.6480944242167,
        "timestamp": "2025-12-20T03:42:47.035253+00:00",
        "meta_object_name": "FENGYUN 3A",
        "meta_object_id": "2008-026A",
        "meta_epoch": "2025-12-19T14:14:12.505056",
        "meta_mean_motion": 14.19516596,
        "meta_eccentricity": 0.0007684,
        "meta_inclination": 98.6705,
        "meta_ra_of_asc_node": 292.9758,
        "meta_arg_of_pericenter": 288.4847,
        "meta_mean_anomaly": 71.5494,
        "meta_ephemeris_type": 0,
        "meta_classification_type": "U",
        "meta_norad_cat_id": 32958,
        "meta_element_set_no": 999,
        "meta_rev_at_epoch": 90992,
        "meta_bstar": 5.2028e-05,
        "meta_mean_motion_dot": 6.6e-07,
        "meta_mean_motion_ddot": 0,
        "tle_line1": "1 32958U 08026A   25353.59320029  .00000066  00000+0  52028-4 0  9993",
        "tle_line2": "2 32958  98.6705 292.9758 0007684 288.4847  71.5494 14.19516596909928"
      },
      "geometry": {
        "type": "Point",
        "coordinates": [
          -64.6131526994451,
          -12.017096147865997
        ]
      }
    },
    {
      "type": "Feature",
      "properties": {
        "norad_id": 35491,
        "name": "GOES 14",
        "group": "weather",
        "lat": -0.9864774506930103,
        "lon": 30.257487696103524,
        "alt_km": 35836.57262397631,
        "timestamp": "2025-12-20T03:42:47.035267+00:00",
        "meta_object_name": "GOES 14",
        "meta_object_id": "2009-033A",
        "meta_epoch": "2025-12-19T11:12:46.867104",
        "meta_mean_motion": 1.00096833,
        "meta_eccentricity": 5.13e-05,
        "meta_inclination": 1.2203,
        "meta_ra_of_asc_node": 85.3391,
        "meta_arg_of_pericenter": 179.3818,
        "meta_mean_anomaly": 237.7883,
        "meta_ephemeris_type": 0,
        "meta_classification_type": "U",
        "meta_norad_cat_id": 35491,
        "meta_element_set_no": 999,
        "meta_rev_at_epoch": 479,
        "meta_bstar": 0,
        "meta_mean_motion_dot": 1.8e-07,
        "meta_mean_motion_ddot": 0,
        "tle_line1": "1 35491U 09033A   25353.46720911  .00000018  00000+0  00000+0 0  9992",
        "tle_line2": "2 35491   1.2203  85.3391 0000513 179.3818 237.7883  1.00096833  4795"
      },
      "geometry": {
        "type": "Point",
        "coordinates": [
          30.257487696103524,
          -0.9864774506930103
        ]
      }
    },
    {
      "type": "Feature",
      "properties": {
        "norad_id": 35951,
        "name": "DMSP 5D-3 F18 (USA 210)",
        "group": "weather",
        "lat": 14.569745917322258,
        "lon": -31.8112792773334,
        "alt_km": 836.3434508047958,
        "timestamp": "2025-12-20T03:42:47.035280+00:00",
        "meta_object_name": "DMSP 5D-3 F18 (USA 210)",
        "meta_object_id": "2009-057A",
        "meta_epoch": "2025-12-19T20:51:15.717888",
        "meta_mean_motion": 14.14773684,
        "meta_eccentricity": 0.0011895,
        "meta_inclination": 98.8841,
        "meta_ra_of_asc_node": 330.2343,
        "meta_arg_of_pericenter": 43.993,
        "meta_mean_anomaly": 316.2188,
        "meta_ephemeris_type": 0,
        "meta_classification_type": "U",
        "meta_norad_cat_id": 35951,
        "meta_element_set_no": 999,
        "meta_rev_at_epoch": 83423,
        "meta_bstar": 0.00013066,
        "meta_mean_motion_dot": 2.08e-06,
        "meta_mean_motion_ddot": 0,
        "tle_line1": "1 35951U 09057A   25353.86893192  .00000208  00000+0  13066-3 0  9996",
        "tle_line2": "2 35951  98.8841 330.2343 0011895  43.9930 316.2188 14.14773684834237"
      },
      "geometry": {
        "type": "Point",
        "coordinates": [
          -31.8112792773334,
          14.569745917322258
        ]
      }
    },
    {
      "type": "Feature",
      "properties": {
        "norad_id": 36411,
        "name": "EWS-G2 (GOES 15)",
        "group": "weather",
        "lat": 0.7061915425409054,
        "lon": -154.00383891667798,
        "alt_km": 35773.71825230453,
        "timestamp": "2025-12-20T03:42:47.035293+00:00",
        "meta_object_name": "EWS-G2 (GOES 15)",
        "meta_object_id": "2010-008A",
        "meta_epoch": "2025-12-19T20:34:05.391840",
        "meta_mean_motion": 1.00270915,
        "meta_eccentricity": 0.0005466,
        "meta_inclination": 0.8304,
        "meta_ra_of_asc_node": 86.0831,
        "meta_arg_of_pericenter": 177.2487,
        "meta_mean_anomaly": 195.2571,
        "meta_ephemeris_type": 0,
        "meta_classification_type": "U",
        "meta_norad_cat_id": 36411,
        "meta_element_set_no": 999,
        "meta_rev_at_epoch": 5784,
        "meta_bstar": 0,
        "meta_mean_motion_dot": 6.2e-07,
        "meta_mean_motion_ddot": 0,
        "tle_line1": "1 36411U 10008A   25353.85700685  .00000062  00000+0  00000+0 0  9997",
        "tle_line2": "2 36411   0.8304  86.0831 0005466 177.2487 195.2571  1.00270915 57844"
      },
      "geometry": {
        "type": "Point",
        "coordinates": [
          -154.00383891667798,
          0.7061915425409054
        ]
      }
    }
  ]
}